{
"type": "FeatureCollection",
"name": "chronique",
"crs": { "type": "name", "properties": { "name": "urn:ogc:def:crs:OGC:1.3:CRS84" } },
"features": [
{ "type": "Feature", "properties": { "ID": 441, "title": "THASOS. – Limenas" }, "geometry": { "type": "Point", "coordinates": [ 24.709444000315241, 40.778056000337301 ] } },
{ "type": "Feature", "properties": { "ID": 442, "title": "THASOS. – Astris" }, "geometry": { "type": "Point", "coordinates": [ 24.650000000411492, 40.583333000272738 ] } },
{ "type": "Feature", "properties": { "ID": 635, "title": "THASOS Limenas. - Area N of the Artemision" }, "geometry": { "type": "Point", "coordinates": [ 24.714971000085114, 40.780256999929563 ] } },
{ "type": "Feature", "properties": { "ID": 636, "title": "THASOS Limenas" }, "geometry": { "type": "Point", "coordinates": [ 24.713200000248559, 40.779899999862877 ] } },
{ "type": "Feature", "properties": { "ID": 637, "title": "THASOS Kastro Limenarion (Kambos)" }, "geometry": { "type": "Point", "coordinates": [ 24.650000000411492, 40.666666999796242 ] } },
{ "type": "Feature", "properties": { "ID": 680, "title": "THASOS. – Artémision" }, "geometry": { "type": "Point", "coordinates": [ 24.715068000169499, 40.7804280001507 ] } },
{ "type": "Feature", "properties": { "ID": 681, "title": "THASOS. - Macellum" }, "geometry": { "type": "Point", "coordinates": [ 24.713200000248559, 40.779899999862877 ] } },
{ "type": "Feature", "properties": { "ID": 682, "title": "THASOS. - Macellum" }, "geometry": { "type": "Point", "coordinates": [ 24.71290800017054, 40.779362999995946 ] } },
{ "type": "Feature", "properties": { "ID": 683, "title": "THASOS. - Le rempart" }, "geometry": { "type": "Point", "coordinates": [ 24.709793000294685, 40.778756999982825 ] } },
{ "type": "Feature", "properties": { "ID": 684, "title": "THASOS. - Le rempart" }, "geometry": { "type": "Point", "coordinates": [ 24.711693000002665, 40.780281000213868 ] } },
{ "type": "Feature", "properties": { "ID": 723, "title": "THASOS Limenas. - Macellum" }, "geometry": { "type": "Point", "coordinates": [ 24.713200000248559, 40.779899999862877 ] } },
{ "type": "Feature", "properties": { "ID": 833, "title": "THASOS" }, "geometry": { "type": "Point", "coordinates": [ 24.71503300000942, 40.780363000269681 ] } },
{ "type": "Feature", "properties": { "ID": 1182, "title": "THASOS. - Limenas, terrain Kalogiannidou" }, "geometry": { "type": "Point", "coordinates": [ 24.707543999708932, 40.776995000151395 ] } },
{ "type": "Feature", "properties": { "ID": 1183, "title": "THASOS. - Limenas, théâtre" }, "geometry": { "type": "Point", "coordinates": [ 24.71759399986637, 40.782096999976659 ] } },
{ "type": "Feature", "properties": { "ID": 1184, "title": "THASOS. - Théologos" }, "geometry": { "type": "Point", "coordinates": [ 24.700000000055187, 40.666666999796242 ] } },
{ "type": "Feature", "properties": { "ID": 1185, "title": "THASOS. – Theologos-Astris" }, "geometry": { "type": "Point", "coordinates": [ 24.650000000411492, 40.583333000272738 ] } },
{ "type": "Feature", "properties": { "ID": 1186, "title": "THASOS. – Prinos" }, "geometry": { "type": "Point", "coordinates": [ 24.614393990432859, 40.718796030106596 ] } },
{ "type": "Feature", "properties": { "ID": 1187, "title": "THASOS. – Panaghia" }, "geometry": { "type": "Point", "coordinates": [ 24.733333000175442, 40.733332999911717 ] } },
{ "type": "Feature", "properties": { "ID": 1188, "title": "THASOS. – Limenas, Aghios Vassileios" }, "geometry": { "type": "Point", "coordinates": [ 24.697589999810944, 40.776636000277342 ] } },
{ "type": "Feature", "properties": { "ID": 1189, "title": "THASOS. - Rachoni" }, "geometry": { "type": "Point", "coordinates": [ 24.633332999989747, 40.750000000209305 ] } },
{ "type": "Feature", "properties": { "ID": 1362, "title": "THASOS. - Abords Nord de l'Artémision" }, "geometry": { "type": "Point", "coordinates": [ 24.714992999826432, 40.780492999968104 ] } },
{ "type": "Feature", "properties": { "ID": 1363, "title": "THASOS. - Macellum" }, "geometry": { "type": "Point", "coordinates": [ 24.713200000248559, 40.779899999862877 ] } },
{ "type": "Feature", "properties": { "ID": 1364, "title": "THASOS. - Thassopoula" }, "geometry": { "type": "Point", "coordinates": [ 24.70916700030579, 40.828332999869758 ] } },
{ "type": "Feature", "properties": { "ID": 1950, "title": "THASOS. - Domus protobyzantine" }, "geometry": { "type": "Point", "coordinates": [ 24.715036000382458, 40.780394999915544 ] } },
{ "type": "Feature", "properties": { "ID": 1951, "title": "THASOS. - Macellum" }, "geometry": { "type": "Point", "coordinates": [ 24.71295699967602, 40.779268000142629 ] } },
{ "type": "Feature", "properties": { "ID": 2021, "title": "THASOS. - Domus protobyzantine" }, "geometry": { "type": "Point", "coordinates": [ 24.714992999826432, 40.780444000300029 ] } },
{ "type": "Feature", "properties": { "ID": 2309, "title": "THASOS. - Tours" }, "geometry": { "type": "Point", "coordinates": [ 24.70916700030579, 40.828332999869758 ] } },
{ "type": "Feature", "properties": { "ID": 2310, "title": "SKALA SOTIROS" }, "geometry": { "type": "Point", "coordinates": [ 24.550000000225793, 40.716667000115102 ] } },
{ "type": "Feature", "properties": { "ID": 2647, "title": "THASOS. - Agora" }, "geometry": { "type": "Point", "coordinates": [ 24.713200000248559, 40.779899999862877 ] } },
{ "type": "Feature", "properties": { "ID": 2650, "title": "THASOS. - Domus protobyzantine" }, "geometry": { "type": "Point", "coordinates": [ 24.715079000040156, 40.780492999968104 ] } },
{ "type": "Feature", "properties": { "ID": 2716, "title": "THASOS. - Aghios Antonios Potou" }, "geometry": { "type": "Point", "coordinates": [ 24.606193999636158, 40.596098000230782 ] } },
{ "type": "Feature", "properties": { "ID": 2959, "title": "THASOS. - Liménas" }, "geometry": { "type": "Point", "coordinates": [ 24.709444000315241, 40.778056000337301 ] } },
{ "type": "Feature", "properties": { "ID": 3179, "title": "THASOS. - Koinyra" }, "geometry": { "type": "Point", "coordinates": [ 24.761988080047526, 40.662575140180714 ] } },
{ "type": "Feature", "properties": { "ID": 4082, "title": "THASOS. - Sotiras" }, "geometry": { "type": "Point", "coordinates": [ 24.571469759770739, 40.714642750250171 ] } },
{ "type": "Feature", "properties": { "ID": 4652, "title": "THASOS. – Liménas" }, "geometry": { "type": "Point", "coordinates": [ 24.706352999830507, 40.775098000031619 ] } },
{ "type": "Feature", "properties": { "ID": 4653, "title": "THASOS. - Liménas" }, "geometry": { "type": "Point", "coordinates": [ 24.709444000315241, 40.778056000337301 ] } },
{ "type": "Feature", "properties": { "ID": 4654, "title": "THASOS. – Liménas" }, "geometry": { "type": "Point", "coordinates": [ 24.709444000315241, 40.778056000337301 ] } },
{ "type": "Feature", "properties": { "ID": 4656, "title": "THASOS. - Liménas" }, "geometry": { "type": "Point", "coordinates": [ 24.709560999592771, 40.775552999912669 ] } },
{ "type": "Feature", "properties": { "ID": 4657, "title": "THASOS. - Limenaria" }, "geometry": { "type": "Point", "coordinates": [ 24.583333000346048, 40.633332999675972 ] } },
{ "type": "Feature", "properties": { "ID": 4658, "title": "THASOS. - Limenaria" }, "geometry": { "type": "Point", "coordinates": [ 24.583333000346048, 40.633332999675972 ] } },
{ "type": "Feature", "properties": { "ID": 4659, "title": "THASOS. - Liménas" }, "geometry": { "type": "Point", "coordinates": [ 24.706942000009487, 40.776170999766066 ] } },
{ "type": "Feature", "properties": { "ID": 4662, "title": "THASOS. – Liménas" }, "geometry": { "type": "Point", "coordinates": [ 24.711923000156442, 40.774723999957878 ] } },
{ "type": "Feature", "properties": { "ID": 4663, "title": "THASOS. – Liménas" }, "geometry": { "type": "Point", "coordinates": [ 24.706962999925867, 40.777746999693242 ] } },
{ "type": "Feature", "properties": { "ID": 4775, "title": "THASOS. - Agora" }, "geometry": { "type": "Point", "coordinates": [ 24.713200000248559, 40.779899999862877 ] } },
{ "type": "Feature", "properties": { "ID": 5181, "title": "THASOS. - Liménas" }, "geometry": { "type": "Point", "coordinates": [ 24.712717000374813, 40.77477299976362 ] } },
{ "type": "Feature", "properties": { "ID": 5182, "title": "THASOS. - Liménas" }, "geometry": { "type": "Point", "coordinates": [ 24.707736000227861, 40.777974000154607 ] } },
{ "type": "Feature", "properties": { "ID": 5183, "title": "THASOS. - Liménas" }, "geometry": { "type": "Point", "coordinates": [ 24.705761000176821, 40.777648999670852 ] } },
{ "type": "Feature", "properties": { "ID": 5184, "title": "THASOS. - Aghios Ioannis Theologou" }, "geometry": { "type": "Point", "coordinates": [ 24.700000000055187, 40.666666999796242 ] } },
{ "type": "Feature", "properties": { "ID": 5185, "title": "THASOS. - Limenaria" }, "geometry": { "type": "Point", "coordinates": [ 24.583333000346048, 40.633332999675972 ] } },
{ "type": "Feature", "properties": { "ID": 5435, "title": "THASOS" }, "geometry": { "type": "Point", "coordinates": [ 24.713200000248559, 40.779899999862877 ] } },
{ "type": "Feature", "properties": { "ID": 5533, "title": "MARIÈS. - Pournari" }, "geometry": { "type": "Point", "coordinates": [ 24.616667000291205, 40.683332999853221 ] } },
{ "type": "Feature", "properties": { "ID": 5534, "title": "LIMENAS. - Terrain Synodia" }, "geometry": { "type": "Point", "coordinates": [ 24.709444000315241, 40.778056000337301 ] } },
{ "type": "Feature", "properties": { "ID": 5535, "title": "LIMENARIA. - Barut Hanas" }, "geometry": { "type": "Point", "coordinates": [ 24.583333000346048, 40.633332999675972 ] } },
{ "type": "Feature", "properties": { "ID": 5658, "title": "LIMÉNAS. - Aghios Vassileios" }, "geometry": { "type": "Point", "coordinates": [ 24.697903999630313, 40.77639800017063 ] } },
{ "type": "Feature", "properties": { "ID": 5738, "title": "THASOS. - Limenas" }, "geometry": { "type": "Point", "coordinates": [ 24.709444000315241, 40.778056000337301 ] } },
{ "type": "Feature", "properties": { "ID": 5739, "title": "THASOS. - Limenas" }, "geometry": { "type": "Point", "coordinates": [ 24.709444000315241, 40.778056000337301 ] } },
{ "type": "Feature", "properties": { "ID": 5771, "title": "THASOS. - Tsigkri" }, "geometry": { "type": "Point", "coordinates": [ 24.666666999934904, 40.666666999796242 ] } },
{ "type": "Feature", "properties": { "ID": 5808, "title": "THASOS. - Glyphoneri" }, "geometry": { "type": "Point", "coordinates": [ 24.632978999987422, 40.79326200014787 ] } },
{ "type": "Feature", "properties": { "ID": 5809, "title": "THASOS. - Limenas" }, "geometry": { "type": "Point", "coordinates": [ 24.709444000315241, 40.778056000337301 ] } },
{ "type": "Feature", "properties": { "ID": 6167, "title": "LIMÉNAS. - Aghios Vassileios" }, "geometry": { "type": "Point", "coordinates": [ 24.697727000078281, 40.776609000090907 ] } },
{ "type": "Feature", "properties": { "ID": 6279, "title": "THASOS. - Grotte de Pefkari Theologou" }, "geometry": { "type": "Point", "coordinates": [ 24.700000000055187, 40.666666999796242 ] } },
{ "type": "Feature", "properties": { "ID": 6480, "title": "THASOS. - Phari" }, "geometry": { "type": "Point", "coordinates": [ 24.514719389687468, 40.640693619713304 ] } },
{ "type": "Feature", "properties": { "ID": 6744, "title": "THASOS. – Théâtre" }, "geometry": { "type": "Point", "coordinates": [ 24.717634000049358, 40.782376999759272 ] } },
{ "type": "Feature", "properties": { "ID": 7596, "title": "THASOS." }, "geometry": { "type": "Point", "coordinates": [ 24.666666999934904, 40.666666999796242 ] } },
{ "type": "Feature", "properties": { "ID": 7597, "title": "THASOS - Terrain Giannopoulou" }, "geometry": { "type": "Point", "coordinates": [ 24.707220999668749, 40.775098000031619 ] } },
{ "type": "Feature", "properties": { "ID": 7598, "title": "THASOS." }, "geometry": { "type": "Point", "coordinates": [ 24.713200000248559, 40.779899999862877 ] } },
{ "type": "Feature", "properties": { "ID": 7599, "title": "TSOUKALARIO." }, "geometry": { "type": "Point", "coordinates": [ 24.65126999993263, 40.801011000335244 ] } },
{ "type": "Feature", "properties": { "ID": 7600, "title": "LIMÉNARIA." }, "geometry": { "type": "Point", "coordinates": [ 24.583333000346048, 40.633332999675972 ] } },
{ "type": "Feature", "properties": { "ID": 7763, "title": "THASOS." }, "geometry": { "type": "Point", "coordinates": [ 24.709444000315241, 40.778056000337301 ] } },
{ "type": "Feature", "properties": { "ID": 7861, "title": "THASOS. - Champ Dimitriadis" }, "geometry": { "type": "Point", "coordinates": [ 24.709444000315241, 40.778056000337301 ] } },
{ "type": "Feature", "properties": { "ID": 7862, "title": "THASOS. - Bouleutérion" }, "geometry": { "type": "Point", "coordinates": [ 24.713200000248559, 40.779899999862877 ] } },
{ "type": "Feature", "properties": { "ID": 7908, "title": "THASOS." }, "geometry": { "type": "Point", "coordinates": [ 24.709444000315241, 40.778056000337301 ] } },
{ "type": "Feature", "properties": { "ID": 7969, "title": "THASOS." }, "geometry": { "type": "Point", "coordinates": [ 24.666666999934904, 40.666666999796242 ] } },
{ "type": "Feature", "properties": { "ID": 8044, "title": "THASOS." }, "geometry": { "type": "Point", "coordinates": [ 24.666666999934904, 40.666666999796242 ] } },
{ "type": "Feature", "properties": { "ID": 8152, "title": "THASOS. – Panagia, Grotte de Drakotrypa" }, "geometry": { "type": "Point", "coordinates": [ 24.731962000371983, 40.732234000328042 ] } },
{ "type": "Feature", "properties": { "ID": 8611, "title": "THASOS. – Archépolis (SIG)" }, "geometry": { "type": "Point", "coordinates": [ 24.713200000248559, 40.779899999862877 ] } },
{ "type": "Feature", "properties": { "ID": 8616, "title": "THASOS. – Abords  Nord de l'Artémision (Thanar)" }, "geometry": { "type": "Point", "coordinates": [ 24.71499200000153, 40.78035899988771 ] } },
{ "type": "Feature", "properties": { "ID": 9447, "title": "THASOS. - Liménas" }, "geometry": { "type": "Point", "coordinates": [ 24.696418000199092, 40.775789000337078 ] } },
{ "type": "Feature", "properties": { "ID": 9448, "title": "THASOS. - Liménas" }, "geometry": { "type": "Point", "coordinates": [ 24.709153000062095, 40.777617000062619 ] } },
{ "type": "Feature", "properties": { "ID": 9469, "title": "THASOS. - Prinos" }, "geometry": { "type": "Point", "coordinates": [ 24.583333000346048, 40.750000000209305 ] } },
{ "type": "Feature", "properties": { "ID": 9470, "title": "THASOS. - Liménaria" }, "geometry": { "type": "Point", "coordinates": [ 24.577748999776418, 40.627111999716263 ] } },
{ "type": "Feature", "properties": { "ID": 9471, "title": "THASOS. - Théologos" }, "geometry": { "type": "Point", "coordinates": [ 24.682760000246301, 40.65858500022506 ] } },
{ "type": "Feature", "properties": { "ID": 9489, "title": "THASOS. - Astris Théologou" }, "geometry": { "type": "Point", "coordinates": [ 24.655631999763369, 40.589432999772306 ] } },
{ "type": "Feature", "properties": { "ID": 9525, "title": "THASOS. - Aghios Ioannis Loukas" }, "geometry": { "type": "Point", "coordinates": [ 24.761521000117245, 40.619254000106196 ] } },
{ "type": "Feature", "properties": { "ID": 9526, "title": "THASOS" }, "geometry": { "type": "Point", "coordinates": [ 24.661730999993814, 40.667619000036524 ] } },
{ "type": "Feature", "properties": { "ID": 9541, "title": "THASOS. - Aghios Ioannis Loukas" }, "geometry": { "type": "Point", "coordinates": [ 24.761295000161407, 40.620483999830348 ] } },
{ "type": "Feature", "properties": { "ID": 10010, "title": "THASOS. – Liménas" }, "geometry": { "type": "Point", "coordinates": [ 24.697787000352747, 40.77661699994573 ] } },
{ "type": "Feature", "properties": { "ID": 10011, "title": "THASOS. – Liménas" }, "geometry": { "type": "Point", "coordinates": [ 24.713584000388117, 40.780094999994191 ] } },
{ "type": "Feature", "properties": { "ID": 10012, "title": "THASOS. – Prinos" }, "geometry": { "type": "Point", "coordinates": [ 24.583333000346048, 40.750000000209305 ] } },
{ "type": "Feature", "properties": { "ID": 10014, "title": "THASOS. – Skala Sotiros" }, "geometry": { "type": "Point", "coordinates": [ 24.542776000239165, 40.722998000317517 ] } },
{ "type": "Feature", "properties": { "ID": 10015, "title": "THASOS. – Skala Sotiros" }, "geometry": { "type": "Point", "coordinates": [ 24.548522000292195, 40.728136999746567 ] } },
{ "type": "Feature", "properties": { "ID": 10016, "title": "THASOS. – Skala Kallirachis" }, "geometry": { "type": "Point", "coordinates": [ 24.534691999911953, 40.71191499991663 ] } },
{ "type": "Feature", "properties": { "ID": 10017, "title": "THASOS. – Liménaria" }, "geometry": { "type": "Point", "coordinates": [ 24.574962999788564, 40.632974999799181 ] } },
{ "type": "Feature", "properties": { "ID": 10018, "title": "THASOS. – Liménaria" }, "geometry": { "type": "Point", "coordinates": [ 24.579461999886639, 40.627999999911474 ] } },
{ "type": "Feature", "properties": { "ID": 10019, "title": "THASOS. - Théologos" }, "geometry": { "type": "Point", "coordinates": [ 24.692207999805994, 40.659936000143674 ] } },
{ "type": "Feature", "properties": { "ID": 10020, "title": "THASOS. – Élia" }, "geometry": { "type": "Point", "coordinates": [ 24.64918299972857, 40.691052000109224 ] } },
{ "type": "Feature", "properties": { "ID": 10021, "title": "THASOS. – Aghios Ioannis Loukas" }, "geometry": { "type": "Point", "coordinates": [ 24.760952000029739, 40.620239999951799 ] } },
{ "type": "Feature", "properties": { "ID": 10022, "title": "THASOS. – Koinyra" }, "geometry": { "type": "Point", "coordinates": [ 24.763356000426207, 40.669441999715225 ] } },
{ "type": "Feature", "properties": { "ID": 10023, "title": "THASOS. – Potamia" }, "geometry": { "type": "Point", "coordinates": [ 24.724643999775715, 40.720526000110247 ] } },
{ "type": "Feature", "properties": { "ID": 10024, "title": "THASOS. – Panaghia" }, "geometry": { "type": "Point", "coordinates": [ 24.727310999937899, 40.731649000317965 ] } },
{ "type": "Feature", "properties": { "ID": 11186, "title": "THASOS. - Liménas (Nécropole Sud-Ouest)" }, "geometry": { "type": "Point", "coordinates": [ 24.701241000162295, 40.772791000252198 ] } },
{ "type": "Feature", "properties": { "ID": 11187, "title": "THASOS. - Liménas (Agora et Théâtre)" }, "geometry": { "type": "Point", "coordinates": [ 24.712790000169743, 40.779838999878713 ] } },
{ "type": "Feature", "properties": { "ID": 11188, "title": "THASOS. - Glykadi" }, "geometry": { "type": "Point", "coordinates": [ 24.650562999752882, 40.792279999772454 ] } },
{ "type": "Feature", "properties": { "ID": 11190, "title": "THASOS. - Liménaria" }, "geometry": { "type": "Point", "coordinates": [ 24.576984999695277, 40.627421999961967 ] } },
{ "type": "Feature", "properties": { "ID": 11191, "title": "THASOS. - Théologos" }, "geometry": { "type": "Point", "coordinates": [ 24.70376699985917, 40.6606850001303 ] } },
{ "type": "Feature", "properties": { "ID": 11403, "title": "THASOS. – Liménaria" }, "geometry": { "type": "Point", "coordinates": [ 24.576078000397285, 40.627634000036018 ] } },
{ "type": "Feature", "properties": { "ID": 11404, "title": "THASOS. – Aghios Ioannis Loukas" }, "geometry": { "type": "Point", "coordinates": [ 24.761367999956335, 40.619457999857495 ] } },
{ "type": "Feature", "properties": { "ID": 11823, "title": "THASOS. – Tsoukalario" }, "geometry": { "type": "Point", "coordinates": [ 24.69178600003162, 40.777193999859783 ] } },
{ "type": "Feature", "properties": { "ID": 11825, "title": "THASOS. – Liménas" }, "geometry": { "type": "Point", "coordinates": [ 24.711448999605185, 40.776638000240332 ] } },
{ "type": "Feature", "properties": { "ID": 11826, "title": "THASOS. – Liménas" }, "geometry": { "type": "Point", "coordinates": [ 24.713187999654703, 40.779826999997887 ] } },
{ "type": "Feature", "properties": { "ID": 11827, "title": "THASOS. – Liménas" }, "geometry": { "type": "Point", "coordinates": [ 24.713163000438644, 40.778851999886648 ] } },
{ "type": "Feature", "properties": { "ID": 11828, "title": "THASOS. – Liménas" }, "geometry": { "type": "Point", "coordinates": [ 24.713538000357381, 40.779639999931078 ] } },
{ "type": "Feature", "properties": { "ID": 11829, "title": "THASOS. – Liménas" }, "geometry": { "type": "Point", "coordinates": [ 24.711857000034197, 40.780155999743265 ] } },
{ "type": "Feature", "properties": { "ID": 12284, "title": "THASOS. – Mont Kleisidio" }, "geometry": { "type": "Point", "coordinates": [ 24.757941999735888, 40.695997999891638 ] } },
{ "type": "Feature", "properties": { "ID": 12285, "title": "THASOS. – Treis Grémoi" }, "geometry": { "type": "Point", "coordinates": [ 24.723022999726993, 40.732430000061989 ] } },
{ "type": "Feature", "properties": { "ID": 12286, "title": "THASOS. – Panaghia" }, "geometry": { "type": "Point", "coordinates": [ 24.727997000201263, 40.730477999848681 ] } },
{ "type": "Feature", "properties": { "ID": 12287, "title": "THASOS. – Panaghia" }, "geometry": { "type": "Point", "coordinates": [ 24.650587000042304, 40.683761999823687 ] } },
{ "type": "Feature", "properties": { "ID": 12288, "title": "THASOS. – Skala Sotiros" }, "geometry": { "type": "Point", "coordinates": [ 24.549426999940351, 40.729729999879574 ] } },
{ "type": "Feature", "properties": { "ID": 12289, "title": "THASOS. – Skala Rachoni" }, "geometry": { "type": "Point", "coordinates": [ 24.613066000168565, 40.780216000189007 ] } },
{ "type": "Feature", "properties": { "ID": 12290, "title": "THASOS. – Skala Sotiros" }, "geometry": { "type": "Point", "coordinates": [ 24.549209000380461, 40.727682000003426 ] } },
{ "type": "Feature", "properties": { "ID": 12291, "title": "THASOS. – Vallée d'Haghia Marina" }, "geometry": { "type": "Point", "coordinates": [ 24.665005999703229, 40.775861999877726 ] } },
{ "type": "Feature", "properties": { "ID": 12292, "title": "THASOS. – Nystéri" }, "geometry": { "type": "Point", "coordinates": [ 24.661563999589212, 40.773781999915528 ] } },
{ "type": "Feature", "properties": { "ID": 12769, "title": "THASOS" }, "geometry": { "type": "Point", "coordinates": [ 24.709444000315241, 40.778056000337301 ] } },
{ "type": "Feature", "properties": { "ID": 13126, "title": "THASOS. – Liménas" }, "geometry": { "type": "Point", "coordinates": [ 24.709989999938163, 40.775048999785298 ] } },
{ "type": "Feature", "properties": { "ID": 13127, "title": "THASOS. - Liménas" }, "geometry": { "type": "Point", "coordinates": [ 24.709852999670822, 40.777857999773005 ] } },
{ "type": "Feature", "properties": { "ID": 13128, "title": "THASOS. - Liménas (Rempart et Agora)" }, "geometry": { "type": "Point", "coordinates": [ 24.713380000173629, 40.780504999728613 ] } },
{ "type": "Feature", "properties": { "ID": 13129, "title": "THASOS. – Liménas (Port militaire)" }, "geometry": { "type": "Point", "coordinates": [ 24.711604000314196, 40.78144300003536 ] } },
{ "type": "Feature", "properties": { "ID": 13130, "title": "THASOS. - Koinyra" }, "geometry": { "type": "Point", "coordinates": [ 24.764030999920582, 40.664371999928832 ] } },
{ "type": "Feature", "properties": { "ID": 13131, "title": "THASOS. - Haghios Ioannis Loukas" }, "geometry": { "type": "Point", "coordinates": [ 24.761290000138562, 40.619238000059227 ] } },
{ "type": "Feature", "properties": { "ID": 13132, "title": "THASOS. - Astris Théologou" }, "geometry": { "type": "Point", "coordinates": [ 24.655755999611944, 40.58924999983963 ] } },
{ "type": "Feature", "properties": { "ID": 14072, "title": "THASOS. - Sites paléochrétiens et byzantins" }, "geometry": { "type": "Point", "coordinates": [ 24.666666999934904, 40.665648999731964 ] } },
{ "type": "Feature", "properties": { "ID": 14073, "title": "THASOS. - Liménas" }, "geometry": { "type": "Point", "coordinates": [ 24.710579999942045, 40.776683000071813 ] } },
{ "type": "Feature", "properties": { "ID": 14074, "title": "THASOS. - Théâtre" }, "geometry": { "type": "Point", "coordinates": [ 24.717609999759908, 40.782076999947002 ] } },
{ "type": "Feature", "properties": { "ID": 14075, "title": "THASOS. - Limenas (Rempart, Abords Nord-Est de l'Agora ert Arc de Caracalla)" }, "geometry": { "type": "Point", "coordinates": [ 24.711364999939597, 40.777511000102301 ] } },
{ "type": "Feature", "properties": { "ID": 14076, "title": "THASOS. - Panaghia (Saliara-Vathy)" }, "geometry": { "type": "Point", "coordinates": [ 24.749106999746296, 40.744331000176103 ] } },
{ "type": "Feature", "properties": { "ID": 14477, "title": "THASOS. – Liménas" }, "geometry": { "type": "Point", "coordinates": [ 24.706619999794206, 40.774692000301236 ] } },
{ "type": "Feature", "properties": { "ID": 14478, "title": "THASOS. – Liménas" }, "geometry": { "type": "Point", "coordinates": [ 24.702068999817577, 40.775081999955177 ] } },
{ "type": "Feature", "properties": { "ID": 14479, "title": "THASOS. – Liménas" }, "geometry": { "type": "Point", "coordinates": [ 24.717653000315938, 40.781450999988273 ] } },
{ "type": "Feature", "properties": { "ID": 14483, "title": "THASOS. – Chioni" }, "geometry": { "type": "Point", "coordinates": [ 24.59283299978426, 40.728588999711633 ] } },
{ "type": "Feature", "properties": { "ID": 14484, "title": "THASOS. – Liménaria" }, "geometry": { "type": "Point", "coordinates": [ 24.566459000235078, 40.627111999716263 ] } },
{ "type": "Feature", "properties": { "ID": 14485, "title": "THASOS. – Tzinès (Liménaria)" }, "geometry": { "type": "Point", "coordinates": [ 24.606073999985554, 40.664632000103794 ] } },
{ "type": "Feature", "properties": { "ID": 14493, "title": "THASOS. – Potos" }, "geometry": { "type": "Point", "coordinates": [ 24.607530000177839, 40.608137000158109 ] } },
{ "type": "Feature", "properties": { "ID": 14494, "title": "THASOS. – Ano Kasaviti" }, "geometry": { "type": "Point", "coordinates": [ 24.62430999967917, 40.724429000098098 ] } },
{ "type": "Feature", "properties": { "ID": 14495, "title": "THASOS. – Carrières de marbre" }, "geometry": { "type": "Point", "coordinates": [ 24.665680000270999, 40.691052000109224 ] } },
{ "type": "Feature", "properties": { "ID": 15013, "title": "THASOS. - Panagouda (Panaghia)" }, "geometry": { "type": "Point", "coordinates": [ 24.621146000297838, 40.56199100017858 ] } },
{ "type": "Feature", "properties": { "ID": 15014, "title": "THASOS. - Potos" }, "geometry": { "type": "Point", "coordinates": [ 24.609491999810086, 40.601250000064347 ] } },
{ "type": "Feature", "properties": { "ID": 15015, "title": "THASOS" }, "geometry": { "type": "Point", "coordinates": [ 24.666666999934904, 40.666666999796242 ] } },
{ "type": "Feature", "properties": { "ID": 15017, "title": "THASOS. - Skala Sotiros" }, "geometry": { "type": "Point", "coordinates": [ 24.548728999981424, 40.729989999697388 ] } },
{ "type": "Feature", "properties": { "ID": 15018, "title": "THASOS. - Nystéri" }, "geometry": { "type": "Point", "coordinates": [ 24.683972999866043, 40.779916000139401 ] } },
{ "type": "Feature", "properties": { "ID": 15019, "title": "THASOS. - Liménas" }, "geometry": { "type": "Point", "coordinates": [ 24.711432999711683, 40.775544999929721 ] } },
{ "type": "Feature", "properties": { "ID": 15020, "title": "THASOS. - Liménas (Rempart, Agora et Théâtre)" }, "geometry": { "type": "Point", "coordinates": [ 24.714379000431425, 40.780008999884778 ] } },
{ "type": "Feature", "properties": { "ID": 15087, "title": "THASOS. – Phari (Skala)" }, "geometry": { "type": "Point", "coordinates": [ 24.523200999630834, 40.637697000175059 ] } },
{ "type": "Feature", "properties": { "ID": 15088, "title": "THASOS. – Prospection" }, "geometry": { "type": "Point", "coordinates": [ 24.702762999578528, 40.685845000117112 ] } },
{ "type": "Feature", "properties": { "ID": 15089, "title": "THASOS. – Liménas" }, "geometry": { "type": "Point", "coordinates": [ 24.70421700012097, 40.775081999955177 ] } },
{ "type": "Feature", "properties": { "ID": 15090, "title": "THASOS. – Liménas" }, "geometry": { "type": "Point", "coordinates": [ 24.705161999952114, 40.769621999886446 ] } },
{ "type": "Feature", "properties": { "ID": 15091, "title": "THASOS. – Liménas" }, "geometry": { "type": "Point", "coordinates": [ 24.713079999699659, 40.779541999980452 ] } },
{ "type": "Feature", "properties": { "ID": 15093, "title": "THASOS. – Musée" }, "geometry": { "type": "Point", "coordinates": [ 24.713273000043525, 40.778477999859227 ] } },
{ "type": "Feature", "properties": { "ID": 15094, "title": "THASOS. – Potamia" }, "geometry": { "type": "Point", "coordinates": [ 24.729881000015705, 40.716232999890522 ] } },
{ "type": "Feature", "properties": { "ID": 15095, "title": "THASOS. – Kinyra" }, "geometry": { "type": "Point", "coordinates": [ 24.76421400021869, 40.6854219998758 ] } },
{ "type": "Feature", "properties": { "ID": 15096, "title": "THASOS. – Liménaria" }, "geometry": { "type": "Point", "coordinates": [ 24.574699000197903, 40.627503000079336 ] } },
{ "type": "Feature", "properties": { "ID": 15097, "title": "THASOS. – Phari (Skala)" }, "geometry": { "type": "Point", "coordinates": [ 24.524660000196153, 40.637143999784961 ] } },
{ "type": "Feature", "properties": { "ID": 15098, "title": "THASOS. – Skala Sôtiros" }, "geometry": { "type": "Point", "coordinates": [ 24.549379000259776, 40.730006999739103 ] } },
{ "type": "Feature", "properties": { "ID": 15099, "title": "THASOS. – Aliki" }, "geometry": { "type": "Point", "coordinates": [ 24.739901999860844, 40.602125999747059 ] } },
{ "type": "Feature", "properties": { "ID": 15100, "title": "THASOS. – Kastri" }, "geometry": { "type": "Point", "coordinates": [ 24.654865000207487, 40.669961999720641 ] } },
{ "type": "Feature", "properties": { "ID": 15101, "title": "THASOS. – Skala Sôtiros" }, "geometry": { "type": "Point", "coordinates": [ 24.549303999916674, 40.730022999774413 ] } },
{ "type": "Feature", "properties": { "ID": 15102, "title": "THASOS. – Skala Sôtiros" }, "geometry": { "type": "Point", "coordinates": [ 24.549390000130401, 40.730136999914528 ] } },
{ "type": "Feature", "properties": { "ID": 17456, "title": "THASOS. - Programme \"Archépolis\"" }, "geometry": { "type": "Point", "coordinates": [ 24.713200000248559, 40.779899999862877 ] } },
{ "type": "Feature", "properties": { "ID": 17478, "title": "THASOS. - Liménas" }, "geometry": { "type": "Point", "coordinates": [ 24.713837000108118, 40.779099000225322 ] } },
{ "type": "Feature", "properties": { "ID": 17480, "title": "THASOS. - Mine d'ocre de Tzinès (Tsinès)" }, "geometry": { "type": "Point", "coordinates": [ 24.606167999696869, 40.665413000289504 ] } },
{ "type": "Feature", "properties": { "ID": 17481, "title": "THASOS. - Métallurgie du fer (Sud de Thasos)" }, "geometry": { "type": "Point", "coordinates": [ 24.666666999934904, 40.666666999796242 ] } },
{ "type": "Feature", "properties": { "ID": 17482, "title": "THASOS. - Kavalerzos" }, "geometry": { "type": "Point", "coordinates": [ 24.753666999943775, 40.657489999986772 ] } },
{ "type": "Feature", "properties": { "ID": 17512, "title": "THASOS. – Abords Nord de l’Artémision (Thanar)" }, "geometry": { "type": "Point", "coordinates": [ 24.714935999925039, 40.780571999995502 ] } },
{ "type": "Feature", "properties": { "ID": 17787, "title": "THASOS. – Limènas" }, "geometry": { "type": "Point", "coordinates": [ 24.703957999654897, 40.774431999713606 ] } },
{ "type": "Feature", "properties": { "ID": 17788, "title": "THASOS. – Tsoukalario" }, "geometry": { "type": "Point", "coordinates": [ 24.692008999614384, 40.777169999820607 ] } },
{ "type": "Feature", "properties": { "ID": 17789, "title": "THASOS. – Théologos" }, "geometry": { "type": "Point", "coordinates": [ 24.649113000306677, 40.630694999812199 ] } },
{ "type": "Feature", "properties": { "ID": 17790, "title": "THASOS. – Mines" }, "geometry": { "type": "Point", "coordinates": [ 24.663619000006232, 40.693134000167177 ] } },
{ "type": "Feature", "properties": { "ID": 17791, "title": "THASOS" }, "geometry": { "type": "Point", "coordinates": [ 24.524491000141744, 40.636427000079969 ] } },
{ "type": "Feature", "properties": { "ID": 17792, "title": "THASOS. – Limènas" }, "geometry": { "type": "Point", "coordinates": [ 24.704988999699729, 40.775081999955177 ] } },
{ "type": "Feature", "properties": { "ID": 17794, "title": "THASOS. – Ville antique" }, "geometry": { "type": "Point", "coordinates": [ 24.709644000331753, 40.778256000225674 ] } },
{ "type": "Feature", "properties": { "ID": 17795, "title": "THASOS. – Tsinès" }, "geometry": { "type": "Point", "coordinates": [ 24.604580000158418, 40.662670999734985 ] } },
{ "type": "Feature", "properties": { "ID": 17796, "title": "THASOS. – Astris (îlot de Panaghia)" }, "geometry": { "type": "Point", "coordinates": [ 24.62276499979842, 40.560862000311388 ] } },
{ "type": "Feature", "properties": { "ID": 17797, "title": "THASOS. – Klissidi" }, "geometry": { "type": "Point", "coordinates": [ 24.761639000118006, 40.68936000012183 ] } },
{ "type": "Feature", "properties": { "ID": 17798, "title": "THASOS. – Théologos (?ghios Ioannis Loukas)" }, "geometry": { "type": "Point", "coordinates": [ 24.761326999948476, 40.619238000059227 ] } },
{ "type": "Feature", "properties": { "ID": 18380, "title": "THASOS. - Liménas" }, "geometry": { "type": "Point", "coordinates": [ 24.710666000155769, 40.775268999927818 ] } },
{ "type": "Feature", "properties": { "ID": 18381, "title": "THASOS. - Tsoukalario" }, "geometry": { "type": "Point", "coordinates": [ 24.692207999805994, 40.77703099996161 ] } },
{ "type": "Feature", "properties": { "ID": 18382, "title": "THASOS. – Skala Sotiros" }, "geometry": { "type": "Point", "coordinates": [ 24.548907000256655, 40.730101999892305 ] } },
{ "type": "Feature", "properties": { "ID": 18383, "title": "THASOS. - Liménas" }, "geometry": { "type": "Point", "coordinates": [ 24.710375999727557, 40.774980000057461 ] } },
{ "type": "Feature", "properties": { "ID": 18423, "title": "THASOS" }, "geometry": { "type": "Point", "coordinates": [ 24.713200000248559, 40.779899999862877 ] } },
{ "type": "Feature", "properties": { "ID": 18566, "title": "THASOS. – Abords Nord de l’Artémision (THANAR)" }, "geometry": { "type": "Point", "coordinates": [ 24.715098000306732, 40.780272000193278 ] } },
{ "type": "Feature", "properties": { "ID": 18775, "title": "THASOS. - Skala Sotiros" }, "geometry": { "type": "Point", "coordinates": [ 24.546975999688211, 40.728721999999316 ] } },
{ "type": "Feature", "properties": { "ID": 18776, "title": "THASOS" }, "geometry": { "type": "Point", "coordinates": [ 24.666666999934904, 40.666666999796242 ] } },
{ "type": "Feature", "properties": { "ID": 19091, "title": "THASOS. - Liménas" }, "geometry": { "type": "Point", "coordinates": [ 24.712574000259693, 40.774245000106177 ] } },
{ "type": "Feature", "properties": { "ID": 19092, "title": "THASOS. - Tsoukalario" }, "geometry": { "type": "Point", "coordinates": [ 24.69197000015463, 40.777035999839278 ] } },
{ "type": "Feature", "properties": { "ID": 19093, "title": "THASOS. - Théologos" }, "geometry": { "type": "Point", "coordinates": [ 24.691811000145972, 40.6599690001837 ] } },
{ "type": "Feature", "properties": { "ID": 19094, "title": "THASOS. - Mariès" }, "geometry": { "type": "Point", "coordinates": [ 24.621189999780473, 40.690981999814419 ] } },
{ "type": "Feature", "properties": { "ID": 19096, "title": "THASOS. - Ville Antique" }, "geometry": { "type": "Point", "coordinates": [ 24.71338299964837, 40.779518000109334 ] } },
{ "type": "Feature", "properties": { "ID": 19097, "title": "THASOS. - Artémision" }, "geometry": { "type": "Point", "coordinates": [ 24.714703000296517, 40.780175999671123 ] } },
{ "type": "Feature", "properties": { "ID": 19098, "title": "THASOS. - Édifice Paléochrétien" }, "geometry": { "type": "Point", "coordinates": [ 24.715373999592948, 40.780119000337073 ] } },
{ "type": "Feature", "properties": { "ID": 19099, "title": "THASOS. -Valma" }, "geometry": { "type": "Point", "coordinates": [ 24.709444000315241, 40.778056000337301 ] } },
{ "type": "Feature", "properties": { "ID": 19100, "title": "THASOS. - Héraklion" }, "geometry": { "type": "Point", "coordinates": [ 24.709040999909107, 40.775564999885347 ] } },
{ "type": "Feature", "properties": { "ID": 19101, "title": "THASOS. - Kounophia" }, "geometry": { "type": "Point", "coordinates": [ 24.709444000315241, 40.778056000337301 ] } },
{ "type": "Feature", "properties": { "ID": 19102, "title": "THASOS. - Phari" }, "geometry": { "type": "Point", "coordinates": [ 24.709444000315241, 40.778056000337301 ] } },
{ "type": "Feature", "properties": { "ID": 19424, "title": "THASOS" }, "geometry": { "type": "Point", "coordinates": [ 24.709045999931956, 40.775911000204644 ] } },
{ "type": "Feature", "properties": { "ID": 19425, "title": "THASOS. - Tsoukalario" }, "geometry": { "type": "Point", "coordinates": [ 24.692207999805994, 40.77703099996161 ] } },
{ "type": "Feature", "properties": { "ID": 19428, "title": "THASOS. - Théologos, Kastri" }, "geometry": { "type": "Point", "coordinates": [ 24.700000000055187, 40.666666999796242 ] } },
{ "type": "Feature", "properties": { "ID": 19432, "title": "THASOS. - Terrain Valma" }, "geometry": { "type": "Point", "coordinates": [ 24.714689000052818, 40.780527000077512 ] } },
{ "type": "Feature", "properties": { "ID": 19433, "title": "THASOS. - Hérakleion" }, "geometry": { "type": "Point", "coordinates": [ 24.711374999985352, 40.777088999879417 ] } },
{ "type": "Feature", "properties": { "ID": 19576, "title": "THASOS. - Archépolis, édifice à paraskénia" }, "geometry": { "type": "Point", "coordinates": [ 24.713719000107353, 40.780244000197065 ] } },
{ "type": "Feature", "properties": { "ID": 19577, "title": "THASOS. - Abords Nord de l'Artémision" }, "geometry": { "type": "Point", "coordinates": [ 24.714986999978649, 40.780437000150144 ] } },
{ "type": "Feature", "properties": { "ID": 19995, "title": "THASOS. – Panagia, Grotte de Drakotrypa" }, "geometry": { "type": "Point", "coordinates": [ 24.731664000446148, 40.732083000094136 ] } },
{ "type": "Feature", "properties": { "ID": 20203, "title": "THASOS. - Kastri" }, "geometry": { "type": "Point", "coordinates": [ 24.718508999560282, 40.777357000038222 ] } },
{ "type": "Feature", "properties": { "ID": 20204, "title": "THASOS. Mavrolakka" }, "geometry": { "type": "Point", "coordinates": [ 24.608859999973408, 40.664673000238018 ] } },
{ "type": "Feature", "properties": { "ID": 20556, "title": "THASOS" }, "geometry": { "type": "Point", "coordinates": [ 24.715099999956568, 40.780474000059485 ] } },
{ "type": "Feature", "properties": { "ID": 20674, "title": "THASOS. - Céramique" }, "geometry": { "type": "Point", "coordinates": [ 24.717384999629004, 40.782511999742844 ] } }
]
}
