{
"type": "FeatureCollection",
"name": "sites",
"crs": { "type": "name", "properties": { "name": "urn:ogc:def:crs:OGC:1.3:CRS84" } },
"features": [
{ "type": "Feature", "properties": { "id": null, "type": "mine/quarry", "Name": "Alyke quarry (Thasos)", "Nom": "Carrières d'Aliki", "desc": "Carrières" }, "geometry": { "type": "Point", "coordinates": [ 24.740399986981902, 40.60139998126958 ] } },
{ "type": "Feature", "properties": { "id": 1, "type": "Tour carrée", "Name": null, "Nom": "Ag. Nikolaos", "desc": "Osborne 1986 \"A tower of 10x10 m lies on the west side of the bay at the very edge of the cliff. Only the lowest course remains. There is a commanding view over the bay but no\nfurther..." }, "geometry": { "type": "Point", "coordinates": [ 24.760008444160544, 40.617631058581665 ] } },
{ "type": "Feature", "properties": { "id": 2, "type": "Tour carrée", "Name": null, "Nom": "Ag. Vassilis", "desc": "Osborne 1986 \"on road from Skala Maries to Maries. A gneiss tower 10 x 10 m, of which only two corners and the lowest course of one side are now visible, lies on a slight natural eminence on the north bank of the stream...\" ; Bon 1930, p. 171." }, "geometry": { "type": "Point", "coordinates": [ 24.584144239297427, 40.65890677416477 ] } },
{ "type": "Feature", "properties": { "id": 3, "type": "Tour carrée", "Name": null, "Nom": "Akrotiri cape", "desc": "Osborne 1986 \"The cape is heavily overgrown. There are pines directly to the east but olives on the coastal plain to the south. Clear view to Cape Pakhys to the north and along the coast south. Tower not found and dimensions unknown. BCH 85 (1961) 940" }, "geometry": { "type": "Point", "coordinates": [ 24.634443248630028, 40.793462800385342 ] } },
{ "type": "Feature", "properties": { "id": 4, "type": "Tour carrée", "Name": null, "Nom": "Amygdalia", "desc": "Osborne 1986 \"At west end of ridge of hills due east of Astris a marble tower 7.5 x 8.0 m preserved to some 2 m high. The tower not only has a spectacular view over the whole south-west tip of the island...\"" }, "geometry": { "type": "Point", "coordinates": [ 24.676620818895913, 40.593655868351618 ] } },
{ "type": "Feature", "properties": { "id": 5, "type": "Tour carrée", "Name": null, "Nom": "Astris", "desc": "Osborne 1986 \"In the village forming the foundations for a house, a tower 9.9 x i 1.6 m. The tower is on rising ground but not at the top of the slope...\"" }, "geometry": { "type": "Point", "coordinates": [ 24.655387903262259, 40.589149767456604 ] } },
{ "type": "Feature", "properties": { "id": 6, "type": "Tour carrée", "Name": null, "Nom": "Avatsinia", "desc": "Osborne 1986 \"In valley north of Astris running down to the north of the bay of Astris, and about\n2 km from the sea, a tower 8 x 8 m in a court 30 x 23 m ...\"" }, "geometry": { "type": "Point", "coordinates": [ 24.643714466518929, 40.593862594121703 ] } },
{ "type": "Feature", "properties": { "id": 7, "type": "Tour carrée", "Name": null, "Nom": "Babouras cape", "desc": "Osborne 1986 \"Yvon Garlan tells me that there is a quadrangular tower on this cape.\"" }, "geometry": { "type": "Point", "coordinates": [ 24.77179075752575, 40.614057720671532 ] } },
{ "type": "Feature", "properties": { "id": 8, "type": "Tour carrée", "Name": null, "Nom": "Gravousa", "desc": "Osborne 1986 \"Some 50 m from the tip of the cape a tower 10.3 x 6.3 m, of which only the foundations are preserved, in a court. There is a light scatter of sherds both in the area of the tower and higher up the\npoint...  Autopsy.Bon I6o-I." }, "geometry": { "type": "Point", "coordinates": [ 24.776152176984972, 40.703831027769354 ] } },
{ "type": "Feature", "properties": { "id": 9, "type": "Tour carrée", "Name": null, "Nom": "Helleniko", "desc": "Osborne 1986 \"About 2 km south of Potamia, a tower 9.62 x 9.62 m of well-dressed ashlar blocks. Now very heavily overgrown with brushwood but excavated by Bon who found evidence for a late fourth- or\nearly third-century date..." }, "geometry": { "type": "Point", "coordinates": [ 24.742865949041228, 40.708584110267623 ] } },
{ "type": "Feature", "properties": { "id": 10, "type": "Tour carrée", "Name": null, "Nom": "Kalami bay", "desc": "Osborne 1986 \"In the middle of the bay just behind the beach a tower of which one side is revealed in\nthe bank of the track leading down to the sea..." }, "geometry": { "type": "Point", "coordinates": [ 24.667136176495845, 40.583135393827369 ] } },
{ "type": "Feature", "properties": { "id": 11, "type": "Tour carrée", "Name": null, "Nom": "Kamnarokaïko", "desc": "Osborne 1986 \"Kaminorokhaïko: In valley leading north-east from Psili Ammos, on hill to south of valley a tower\n7.5 x 5 m at the corner of an enclosure 26 x 13 m...\"" }, "geometry": { "type": "Point", "coordinates": [ 24.629548474865189, 40.593510853128485 ] } },
{ "type": "Feature", "properties": { "id": 12, "type": "Tour carrée", "Name": null, "Nom": "Kokkina", "desc": "Osborne 1986 \"North of the cape, on hill south of Astris bay, a tower 9 x 14 m of local ironstone. If\ncorrectly identified this tower lies close to the modern triangulation point and only one or two blocks mark...\"" }, "geometry": { "type": "Point", "coordinates": [ 24.644503319619584, 40.576199258298374 ] } },
{ "type": "Feature", "properties": { "id": 13, "type": "Tour carrée", "Name": null, "Nom": "Limenaria", "desc": "Tour carrée située à proximité des installations Speidel selon la carte d'Osborne. Osborne 1986 \"Above the beach a tower 9 x 9 m. Conze 38, AM 33 (1908) 240.\"" }, "geometry": { "type": "Point", "coordinates": [ 24.56779078619493, 40.626047050071335 ] } },
{ "type": "Feature", "properties": { "id": 14, "type": "Tour carrée", "Name": null, "Nom": "Loutro", "desc": "Tour carrée de 7m de côté. Bon 1930, Osborne 1986 n14, p. 177. " }, "geometry": { "type": "Point", "coordinates": [ 24.765421273651832, 40.654538526420438 ] } },
{ "type": "Feature", "properties": { "id": 15, "type": "Tour carrée", "Name": null, "Nom": "Marmora", "desc": "Osborne 1986 \"On the east slope of Cape Pakhys 'an ancient fort'. Baker-Penoyre 229." }, "geometry": { "type": "Point", "coordinates": [ 24.657561287046551, 40.791239240881112 ] } },
{ "type": "Feature", "properties": { "id": 16, "type": "Tour carrée", "Name": null, "Nom": "Evraio", "desc": "Village médiéval avec tour carrée. Osborne 1986 \"Ovraio: A deserted medieval village on the path from Kasaviti to Rakhoni (now no longer in use) includes a tower 9.4 x 9.4 m of large blocks in irregular courses. This is now in pine forest. Bon 175-7.\"" }, "geometry": { "type": "Point", "coordinates": [ 24.620754597708181, 40.746666914909753 ] } },
{ "type": "Feature", "properties": { "id": 17, "type": "Tour carrée", "Name": null, "Nom": "Phari", "desc": "Osborne 1986 \"In the broad valley south of Skala Maries, on an eminence claimed to dominate the whole\narea south to Cape Kephalas, a tower 9.4 x 9.4 m amid abandoned terracing and a heavy scatter of sherds...\"" }, "geometry": { "type": "Point", "coordinates": [ 24.523332643298676, 40.63833093438717 ] } },
{ "type": "Feature", "properties": { "id": 18, "type": "Tour carrée", "Name": "Ποτός", "Nom": "Potos", "desc": "Osborne 1986 \"Some distance from the sea at the foot of a hill at the south-west of the plain a tower\n16.3 x 17.8 m. Conze 34.\"" }, "geometry": { "type": "Point", "coordinates": [ 24.61679472272905, 40.602282155854311 ] } },
{ "type": "Feature", "properties": { "id": null, "type": "sanctuary/temple", "Name": "Alyke (Thasos)", "Nom": "Aliki", "desc": "Sanctuaire, et basiliques" }, "geometry": { "type": "Point", "coordinates": [ 24.742999986975242, 40.604299981262137 ] } },
{ "type": "Feature", "properties": { "id": 20, "type": "Tour carrée", "Name": null, "Nom": "Saliari", "desc": "Osborne 1986 \"On the south side of the bay a tower 10.2 x 9.9 m with associated stairway and terracing.\nThe tower stands to some 2 m on the lower side, with a foundation levelling course and parpens above." }, "geometry": { "type": "Point", "coordinates": [ 24.746634356391894, 40.750878642528328 ] } },
{ "type": "Feature", "properties": { "id": 21, "type": "Tour carrée", "Name": "Skhidia", "Nom": "Skidia", "desc": "Tour carrée de 7m de côté avec bâtiments adjacents et mur d'église byzantine. GTh p. 168 ; Bon 1930, p. 163-164, Osborne 1986" }, "geometry": { "type": "Point", "coordinates": [ 24.727822313262987, 40.605168783349072 ] } },
{ "type": "Feature", "properties": { "id": 22, "type": "Tour carrée", "Name": null, "Nom": "Theologo", "desc": "Osborne 1986 \"Half an hour before arriving at the village a tower 13.5 x 10.75 m on the west slope of a gentle hill. Long thin blocks with larger blocks above... Bon 165-7 with plan\"" }, "geometry": { "type": "Point", "coordinates": [ 24.678762323589734, 40.651271636494862 ] } },
{ "type": "Feature", "properties": { "id": 23, "type": "Tour carrée", "Name": null, "Nom": "Stin Trypiti", "desc": "Osborne 1986 \"On the steep slope on the north side of a dry valley which leads a crooked way down to the valley in which Avatsinia lies, a tower 8 x 8 m...\"" }, "geometry": { "type": "Point", "coordinates": [ 24.661224323412672, 40.595500795728725 ] } },
{ "type": "Feature", "properties": { "id": 18, "type": "Tour carrée", "Name": "Ποτός", "Nom": "Potos", "desc": "Osborne 1986 \"North of the road to Theologo a tower 8.8 x 9.9 m. Conze 35.\"" }, "geometry": { "type": "Point", "coordinates": [ 24.619133122743353, 40.615611036038679 ] } },
{ "type": "Feature", "properties": { "id": 25, "type": "Tour ronde", "Name": null, "Nom": "Ag.Nikolaos bay", "desc": "Osborne 1986 \"On the east side of the bay further back from the sea than the square tower to the west a round defence work about I o m in diameter. For the general situation, see no. i. Baker-Penoyre\n235, Bon 163." }, "geometry": { "type": "Point", "coordinates": [ 24.762827804915858, 40.617540215965569 ] } },
{ "type": "Feature", "properties": { "id": 26, "type": "Tour ronde", "Name": null, "Nom": "Loutro", "desc": "Fondation circulaire d'une dizaine de m. relévée par Baker-Penoyre. Osborne 1986 n 26, p. 177 ; Baker-Penoyre 1909, p. 234 ; Bon 1930 p. 162." }, "geometry": { "type": "Point", "coordinates": [ 24.767796904935782, 40.652309301447453 ] } },
{ "type": "Feature", "properties": { "id": 27, "type": "Tour ronde", "Name": "Phanari cape", "Nom": "Phanari", "desc": "Carrière et phare restauré de 3,5 m de diamètre. T. KOZELJ, M. WURCH-KOZELJ, «Phares de Thasos», BCH 113 (1989), 161-181 ; carrière de Phanari : M. BRUNET, BCH 111 (1987), 626-627 : Osborne 1986" }, "geometry": { "type": "Point", "coordinates": [ 24.729998860414849, 40.777168901966775 ] } },
{ "type": "Feature", "properties": { "id": 28, "type": "Tour ronde", "Name": null, "Nom": "Phari", "desc": "Osborne 1986 \"In valley south of Skala Maries a tower 9 m in diameter. Conze 38. See general remarks for\nno. 17\"" }, "geometry": { "type": "Point", "coordinates": [ 24.520712533800346, 40.638237026456231 ] } },
{ "type": "Feature", "properties": { "id": 29, "type": "Tour ronde", "Name": null, "Nom": "Tour d'Akératos", "desc": "Tour-phare circulaire en marbre de la fin du VIe s. avec inscription IG XII 8, 683; GTh p. 158 ; Osborne 1986 \"On the cape a tower 5.2 m in diameter preserved to a metre high...\"" }, "geometry": { "type": "Point", "coordinates": [ 24.781407123765842, 40.731350876291494 ] } },
{ "type": "Feature", "properties": { "id": 30, "type": "Tour ronde", "Name": "Thymonia", "Nom": "Thymonia", "desc": "Tour circulaire de 15m de diam. bien conservée, GTh p. 168 ; Bon 1930, p. 164 ; Osborne 1986 n21 p. 177." }, "geometry": { "type": "Point", "coordinates": [ 24.717475180539022, 40.60659578794624 ] } },
{ "type": "Feature", "properties": { "id": 31, "type": "Tour ronde", "Name": null, "Nom": "Vathy Potamia", "desc": "Osborne 1986 \"On the point east of Vathy Potamia bay and immediately west of Moni Arkhangelou a tower 7.6 m in diameter preserved to three courses of well-shaped stones with some further fallen stones..." }, "geometry": { "type": "Point", "coordinates": [ 24.697230425071762, 40.597493350053561 ] } },
{ "type": "Feature", "properties": { "id": 24, "type": "Tour carrée", "Name": null, "Nom": "Tsouknida", "desc": "Osborne 1986 \"Tsouknidha In the valley leading up from Prinos to Kasaviti, just to the south of the modern road about 2 km before Mikro Kasaviti a gneiss tower 8.0 x 8.8 m...\" ; Bon 1930, p. 174." }, "geometry": { "type": "Point", "coordinates": [ 24.594799558278901, 40.732688630325406 ] } },
{ "type": "Feature", "properties": { "id": null, "type": "Atelier", "Name": null, "Nom": "Balobakia", "desc": "Garlan BCH 128-129 (2004-2005), p. 269-329." }, "geometry": { "type": "Point", "coordinates": [ 24.555405240999786, 40.706944296427018 ] } },
{ "type": "Feature", "properties": { "id": null, "type": "Atelier", "Name": null, "Nom": "Douka Ambéli", "desc": "Garlan BCH 128-129 (2004-2005), p. 269-329. \"... à proximité imédiate d'une \"tour\" en bel appareil, un petit dépotoir composé essentiellement d'amphores et de tuiles (avec des surcuits).\"" }, "geometry": { "type": "Point", "coordinates": [ 24.557768324212724, 40.700438535706454 ] } },
{ "type": "Feature", "properties": { "id": null, "type": "Atelier", "Name": null, "Nom": "Chioni", "desc": "Dépotoir d'atelier fouillé en 1995. Voir Garlan BCH 128-129 (2004-2005), p. 269-329." }, "geometry": { "type": "Point", "coordinates": [ 24.583895733766884, 40.732740657070423 ] } },
{ "type": "Feature", "properties": { "id": null, "type": "Habitat", "Name": "Αερμόλα", "Nom": "Aermolas", "desc": "Habitat avec tour et atelier présumé Garlan BCH 128-129 (2004-2005), p. 269-329." }, "geometry": { "type": "Point", "coordinates": [ 24.562230968037447, 40.714407153415927 ] } },
{ "type": "Feature", "properties": { "id": null, "type": "Atelier", "Name": null, "Nom": "Skala Mariès", "desc": "Dépotoir d'atelier sur 30m mais sans timbre \"sans doute antérieur à la pratique du timbrage\". Garlan BCH 128-129 (2004-2005), p. 269-329." }, "geometry": { "type": "Point", "coordinates": [ 24.51516181096261, 40.646254344044742 ] } },
{ "type": "Feature", "properties": { "id": null, "type": "Atelier", "Name": null, "Nom": "Ag. Tryphonas", "desc": "A 500 m environ à l'Ouest d'Haghios Tryphonas, au Sud de la route qui va de Kéramidi à Skala Mariés, s'étale d'autre part une grande nappe de céramique d'apparence assez tardive (hell rom)...  Garlan BCH 128-129 (2004-2005), p. 312." }, "geometry": { "type": "Point", "coordinates": [ 24.561749006880767, 40.64540378440892 ] } },
{ "type": "Feature", "properties": { "id": null, "type": "Atelier", "Name": null, "Nom": "Liménaria", "desc": "Atelier amphorique à la production importante. Garlan BCH 128-129 (2004-2005), p. 312-313." }, "geometry": { "type": "Point", "coordinates": [ 24.573328397441291, 40.627233359293662 ] } },
{ "type": "Feature", "properties": { "id": null, "type": "Atelier", "Name": null, "Nom": "Kéramidi", "desc": "Atelier fouillé en 1984. Garlan 1986, p. 225-229 ; Garlan BCH 128-129 (2004-2005), p. 311." }, "geometry": { "type": "Point", "coordinates": [ 24.572218397109506, 40.634842869079002 ] } },
{ "type": "Feature", "properties": { "id": null, "type": "Atelier", "Name": null, "Nom": "Kounouphia", "desc": "Atelier fouillé en 1985. Garlan 1993, p. 157-170 ; Garlan BCH 128-129 (2004-2005), p. 311." }, "geometry": { "type": "Point", "coordinates": [ 24.571018122724414, 40.654266476215284 ] } },
{ "type": "Feature", "properties": { "id": null, "type": "Atelier", "Name": null, "Nom": "Ag. Giorgos", "desc": "Garlan BCH 128-129 (2004-2005), p. 269-329." }, "geometry": { "type": "Point", "coordinates": [ 24.522698355165478, 40.680987329703349 ] } },
{ "type": "Feature", "properties": { "id": null, "type": "Atelier", "Name": null, "Nom": "Koukos", "desc": "Large installation sur la colline fouillé en 1978. Garlan 1979 ; Garlan BCH 128-129 (2004-2005), p. 269-329." }, "geometry": { "type": "Point", "coordinates": [ 24.656078858546348, 40.57779572675063 ] } },
{ "type": "Feature", "properties": { "id": null, "type": "Atelier", "Name": null, "Nom": "Vamvouri Ammoudia", "desc": "Atelier fouillé en 1979 et 1980. Garlan BCH 128-129 (2004-2005), p. 310." }, "geometry": { "type": "Point", "coordinates": [ 24.641494869764852, 40.581302038426905 ] } },
{ "type": "Feature", "properties": { "id": null, "type": "Habitat", "Name": null, "Nom": "Sotiros", "desc": "Habitat isolé das les hauteus fonctionnant entre le IVe et Ier siècle avant notre ère. A fait l'objet de fouilles en 2013 https://chronique.efa.gr/?kroute=report&id=4082" }, "geometry": { "type": "Point", "coordinates": [ 24.576677521903083, 40.718444696908236 ] } },
{ "type": "Feature", "properties": { "id": null, "type": "Atelier", "Name": null, "Nom": "Ag. Eirini", "desc": "Garlan BCH 128-129 (2004-2005), p. 269-329." }, "geometry": { "type": "Point", "coordinates": [ 24.673904178427851, 40.782606465585495 ] } },
{ "type": "Feature", "properties": { "id": null, "type": "Atelier", "Name": null, "Nom": "Ag. Ioannis", "desc": "Garlan BCH 128-129 (2004-2005), p. 269-329." }, "geometry": { "type": "Point", "coordinates": [ 24.732063114675789, 40.75345490511512 ] } },
{ "type": "Feature", "properties": { "id": null, "type": "Atelier", "Name": null, "Nom": "Loutro I", "desc": "Garlan BCH 128-129 (2004-2005), p. 269-329." }, "geometry": { "type": "Point", "coordinates": [ 24.766902656447456, 40.656793451164958 ] } },
{ "type": "Feature", "properties": { "id": null, "type": "Atelier", "Name": null, "Nom": "Tsaïri", "desc": "Garlan BCH 128-129 (2004-2005), p. 269-329." }, "geometry": { "type": "Point", "coordinates": [ 24.754348530590487, 40.715311758477 ] } },
{ "type": "Feature", "properties": { "id": null, "type": "Atelier", "Name": null, "Nom": "Loutro II", "desc": "Garlan BCH 128-129 (2004-2005), p. 269-329." }, "geometry": { "type": "Point", "coordinates": [ 24.764590992371097, 40.65293894207943 ] } },
{ "type": "Feature", "properties": { "id": null, "type": "Atelier", "Name": null, "Nom": "Molos", "desc": "Garlan BCH 128-129 (2004-2005), p. 269-329." }, "geometry": { "type": "Point", "coordinates": [ 24.690804786003412, 40.775539555069557 ] } },
{ "type": "Feature", "properties": { "id": null, "type": "Atelier", "Name": null, "Nom": "Kalonéro", "desc": "Garlan BCH 128-129 (2004-2005), p. 269-329." }, "geometry": { "type": "Point", "coordinates": [ 24.776413050589028, 40.695031766916067 ] } },
{ "type": "Feature", "properties": { "id": null, "type": "Habitat", "Name": null, "Nom": "Phari", "desc": "Plusieurs structures rectangulaires affleurent et attestent de la présence probable d'un habitat." }, "geometry": { "type": "Point", "coordinates": [ 24.522499987094182, 40.638611091348743 ] } },
{ "type": "Feature", "properties": { "id": null, "type": "Atelier", "Name": null, "Nom": "Phari", "desc": "Atelier archaïque." }, "geometry": { "type": "Point", "coordinates": [ 24.526111097093107, 40.637499981348427 ] } }
]
}
